STARLINK-35804          
1 66371U 25254Z   25327.16670139  .00021644  00000+0  15166-3 0  9991
2 66371  53.1590  12.0112 0001289 103.5597 127.3725 15.74194803  3771
STARLINK-35821          
1 66372U 25254AA  25327.16670139  .00076446  00000+0  52201-3 0  9993
2 66372  53.1590  12.0160 0001256 109.9871 119.0348 15.74167632  3773
STARLINK-35809          
1 66373U 25254AB  25327.16670139  .00063123  00000+0  43233-3 0  9997
2 66373  53.1589  12.0070 0001626  94.9654 137.8877 15.74174356  3771
STARLINK-35831          
1 66374U 25254AC  25327.16670139  .00053366  00000+0  36645-3 0  9995
2 66374  53.1590  12.0031 0001252  99.4011 135.3627 15.74183904  3778
STARLINK-35826          
1 66375U 25254AD  25327.16670139  .00019851  00000+0  13949-3 0  9999
2 66375  53.1589  11.9992 0001415 111.0244 125.6609 15.74194103  3776
SHIYAN-32 01            
1 66376U 25255A   25327.11837142  .00019788  00000+0  46725-3 0  9992
2 66376  52.9977 271.2753 0013153 340.6220  19.4282 15.41802812  2321
CZ-11 DEB               
1 66377U 25255B   25327.11343944  .00037701  00000+0  85486-3 0  9997
2 66377  52.9979 271.2441 0014172 338.3551  21.6853 15.42636915  2184
SHIYAN-32 02            
1 66378U 25255C   25327.11095280  .00040043  00000+0  89794-3 0  9994
2 66378  52.9993 271.2293 0013513 342.5087  17.5450 15.42949560  2185
SHIYAN-32 03            
1 66379U 25255D   25327.11505797  .00019740  00000+0  46032-3 0  9992
2 66379  52.9983 271.2554 0015151 341.5810  18.4644 15.42152799  2206
STARLINK-35139          
1 66380U 25257A   25327.16670139 -.00014501  00000+0 -94804-4 0  9997
2 66380  53.1574 358.0456 0001437  98.9889  13.9518 15.74206270  3292
STARLINK-35158          
1 66381U 25257B   25327.16670139  .00000336  00000+0  65932-5 0  9998
2 66381  53.1621 358.0411 0001536  91.8548  23.0141 15.74194156  3351
STARLINK-35639          
1 66382U 25257C   25327.16670139 -.00017271  00000+0 -11381-3 0  9994
2 66382  53.1618 358.0367 0001440  93.2475  23.5381 15.74199808  3357
