CCSDS_OMM_VERS = 2.0
CREATION_DATE  = 
ORIGINATOR     = 

OBJECT_NAME    = STARLINK-35804
OBJECT_ID      = 2025-254Z
CENTER_NAME    = EARTH
REF_FRAME      = TEME
TIME_SYSTEM    = UTC
MEAN_ELEMENT_THEORY = SGP/SGP4

EPOCH          = 2025-11-23T04:00:03.000096
MEAN_MOTION    = 15.74194803
ECCENTRICITY   = .0001289
INCLINATION    = 53.1590
RA_OF_ASC_NODE = 12.0112
ARG_OF_PERICENTER = 103.5597
MEAN_ANOMALY   = 127.3725

EPHEMERIS_TYPE = 0
CLASSIFICATION_TYPE = U
NORAD_CAT_ID   = 66371
ELEMENT_SET_NO = 999
REV_AT_EPOCH   = 377
BSTAR          = .15166E-3
MEAN_MOTION_DOT = .21644E-3
MEAN_MOTION_DDOT = 0

CCSDS_OMM_VERS = 2.0
CREATION_DATE  = 
ORIGINATOR     = 

OBJECT_NAME    = STARLINK-35821
OBJECT_ID      = 2025-254AA
CENTER_NAME    = EARTH
REF_FRAME      = TEME
TIME_SYSTEM    = UTC
MEAN_ELEMENT_THEORY = SGP/SGP4

EPOCH          = 2025-11-23T04:00:03.000096
MEAN_MOTION    = 15.74167632
ECCENTRICITY   = .0001256
INCLINATION    = 53.1590
RA_OF_ASC_NODE = 12.0160
ARG_OF_PERICENTER = 109.9871
MEAN_ANOMALY   = 119.0348

EPHEMERIS_TYPE = 0
CLASSIFICATION_TYPE = U
NORAD_CAT_ID   = 66372
ELEMENT_SET_NO = 999
REV_AT_EPOCH   = 377
BSTAR          = .52201E-3
MEAN_MOTION_DOT = .76446E-3
MEAN_MOTION_DDOT = 0

CCSDS_OMM_VERS = 2.0
CREATION_DATE  = 
ORIGINATOR     = 

OBJECT_NAME    = STARLINK-35809
OBJECT_ID      = 2025-254AB
CENTER_NAME    = EARTH
REF_FRAME      = TEME
TIME_SYSTEM    = UTC
MEAN_ELEMENT_THEORY = SGP/SGP4

EPOCH          = 2025-11-23T04:00:03.000096
MEAN_MOTION    = 15.74174356
ECCENTRICITY   = .0001626
INCLINATION    = 53.1589
RA_OF_ASC_NODE = 12.0070
ARG_OF_PERICENTER = 94.9654
MEAN_ANOMALY   = 137.8877

EPHEMERIS_TYPE = 0
CLASSIFICATION_TYPE = U
NORAD_CAT_ID   = 66373
ELEMENT_SET_NO = 999
REV_AT_EPOCH   = 377
BSTAR          = .43233E-3
MEAN_MOTION_DOT = .63123E-3
MEAN_MOTION_DDOT = 0

CCSDS_OMM_VERS = 2.0
CREATION_DATE  = 
ORIGINATOR     = 

OBJECT_NAME    = STARLINK-35831
OBJECT_ID      = 2025-254AC
CENTER_NAME    = EARTH
REF_FRAME      = TEME
TIME_SYSTEM    = UTC
MEAN_ELEMENT_THEORY = SGP/SGP4

EPOCH          = 2025-11-23T04:00:03.000096
MEAN_MOTION    = 15.74183904
ECCENTRICITY   = .0001252
INCLINATION    = 53.1590
RA_OF_ASC_NODE = 12.0031
ARG_OF_PERICENTER = 99.4011
MEAN_ANOMALY   = 135.3627

EPHEMERIS_TYPE = 0
CLASSIFICATION_TYPE = U
NORAD_CAT_ID   = 66374
ELEMENT_SET_NO = 999
REV_AT_EPOCH   = 377
BSTAR          = .36645E-3
MEAN_MOTION_DOT = .53366E-3
MEAN_MOTION_DDOT = 0

CCSDS_OMM_VERS = 2.0
CREATION_DATE  = 
ORIGINATOR     = 

OBJECT_NAME    = STARLINK-35826
OBJECT_ID      = 2025-254AD
CENTER_NAME    = EARTH
REF_FRAME      = TEME
TIME_SYSTEM    = UTC
MEAN_ELEMENT_THEORY = SGP/SGP4

EPOCH          = 2025-11-23T04:00:03.000096
MEAN_MOTION    = 15.74194103
ECCENTRICITY   = .0001415
INCLINATION    = 53.1589
RA_OF_ASC_NODE = 11.9992
ARG_OF_PERICENTER = 111.0244
MEAN_ANOMALY   = 125.6609

EPHEMERIS_TYPE = 0
CLASSIFICATION_TYPE = U
NORAD_CAT_ID   = 66375
ELEMENT_SET_NO = 999
REV_AT_EPOCH   = 377
BSTAR          = .13949E-3
MEAN_MOTION_DOT = .19851E-3
MEAN_MOTION_DDOT = 0

CCSDS_OMM_VERS = 2.0
CREATION_DATE  = 
ORIGINATOR     = 

OBJECT_NAME    = SHIYAN-32 01
OBJECT_ID      = 2025-255A
CENTER_NAME    = EARTH
REF_FRAME      = TEME
TIME_SYSTEM    = UTC
MEAN_ELEMENT_THEORY = SGP/SGP4

EPOCH          = 2025-11-23T02:50:27.290688
MEAN_MOTION    = 15.41802812
ECCENTRICITY   = .0013153
INCLINATION    = 52.9977
RA_OF_ASC_NODE = 271.2753
ARG_OF_PERICENTER = 340.6220
MEAN_ANOMALY   = 19.4282

EPHEMERIS_TYPE = 0
CLASSIFICATION_TYPE = U
NORAD_CAT_ID   = 66376
ELEMENT_SET_NO = 999
REV_AT_EPOCH   = 232
BSTAR          = .46725E-3
MEAN_MOTION_DOT = .19788E-3
MEAN_MOTION_DDOT = 0

CCSDS_OMM_VERS = 2.0
CREATION_DATE  = 
ORIGINATOR     = 

OBJECT_NAME    = CZ-11 DEB
OBJECT_ID      = 2025-255B
CENTER_NAME    = EARTH
REF_FRAME      = TEME
TIME_SYSTEM    = UTC
MEAN_ELEMENT_THEORY = SGP/SGP4

EPOCH          = 2025-11-23T02:43:21.167616
MEAN_MOTION    = 15.42636915
ECCENTRICITY   = .0014172
INCLINATION    = 52.9979
RA_OF_ASC_NODE = 271.2441
ARG_OF_PERICENTER = 338.3551
MEAN_ANOMALY   = 21.6853

EPHEMERIS_TYPE = 0
CLASSIFICATION_TYPE = U
NORAD_CAT_ID   = 66377
ELEMENT_SET_NO = 999
REV_AT_EPOCH   = 218
BSTAR          = .85486E-3
MEAN_MOTION_DOT = .37701E-3
MEAN_MOTION_DDOT = 0

CCSDS_OMM_VERS = 2.0
CREATION_DATE  = 
ORIGINATOR     = 

OBJECT_NAME    = SHIYAN-32 02
OBJECT_ID      = 2025-255C
CENTER_NAME    = EARTH
REF_FRAME      = TEME
TIME_SYSTEM    = UTC
MEAN_ELEMENT_THEORY = SGP/SGP4

EPOCH          = 2025-11-23T02:39:46.321920
MEAN_MOTION    = 15.42949560
ECCENTRICITY   = .0013513
INCLINATION    = 52.9993
RA_OF_ASC_NODE = 271.2293
ARG_OF_PERICENTER = 342.5087
MEAN_ANOMALY   = 17.5450

EPHEMERIS_TYPE = 0
CLASSIFICATION_TYPE = U
NORAD_CAT_ID   = 66378
ELEMENT_SET_NO = 999
REV_AT_EPOCH   = 218
BSTAR          = .89794E-3
MEAN_MOTION_DOT = .40043E-3
MEAN_MOTION_DDOT = 0

CCSDS_OMM_VERS = 2.0
CREATION_DATE  = 
ORIGINATOR     = 

OBJECT_NAME    = SHIYAN-32 03
OBJECT_ID      = 2025-255D
CENTER_NAME    = EARTH
REF_FRAME      = TEME
TIME_SYSTEM    = UTC
MEAN_ELEMENT_THEORY = SGP/SGP4

EPOCH          = 2025-11-23T02:45:41.008608
MEAN_MOTION    = 15.42152799
ECCENTRICITY   = .0015151
INCLINATION    = 52.9983
RA_OF_ASC_NODE = 271.2554
ARG_OF_PERICENTER = 341.5810
MEAN_ANOMALY   = 18.4644

EPHEMERIS_TYPE = 0
CLASSIFICATION_TYPE = U
NORAD_CAT_ID   = 66379
ELEMENT_SET_NO = 999
REV_AT_EPOCH   = 220
BSTAR          = .46032E-3
MEAN_MOTION_DOT = .1974E-3
MEAN_MOTION_DDOT = 0

CCSDS_OMM_VERS = 2.0
CREATION_DATE  = 
ORIGINATOR     = 

OBJECT_NAME    = STARLINK-35139
OBJECT_ID      = 2025-257A
CENTER_NAME    = EARTH
REF_FRAME      = TEME
TIME_SYSTEM    = UTC
MEAN_ELEMENT_THEORY = SGP/SGP4

EPOCH          = 2025-11-23T04:00:03.000096
MEAN_MOTION    = 15.74206270
ECCENTRICITY   = .0001437
INCLINATION    = 53.1574
RA_OF_ASC_NODE = 358.0456
ARG_OF_PERICENTER = 98.9889
MEAN_ANOMALY   = 13.9518

EPHEMERIS_TYPE = 0
CLASSIFICATION_TYPE = U
NORAD_CAT_ID   = 66380
ELEMENT_SET_NO = 999
REV_AT_EPOCH   = 329
BSTAR          = -.94804E-4
MEAN_MOTION_DOT = -.14501E-3
MEAN_MOTION_DDOT = 0

CCSDS_OMM_VERS = 2.0
CREATION_DATE  = 
ORIGINATOR     = 

OBJECT_NAME    = STARLINK-35158
OBJECT_ID      = 2025-257B
CENTER_NAME    = EARTH
REF_FRAME      = TEME
TIME_SYSTEM    = UTC
MEAN_ELEMENT_THEORY = SGP/SGP4

EPOCH          = 2025-11-23T04:00:03.000096
MEAN_MOTION    = 15.74194156
ECCENTRICITY   = .0001536
INCLINATION    = 53.1621
RA_OF_ASC_NODE = 358.0411
ARG_OF_PERICENTER = 91.8548
MEAN_ANOMALY   = 23.0141

EPHEMERIS_TYPE = 0
CLASSIFICATION_TYPE = U
NORAD_CAT_ID   = 66381
ELEMENT_SET_NO = 999
REV_AT_EPOCH   = 335
BSTAR          = .65932E-5
MEAN_MOTION_DOT = .336E-5
MEAN_MOTION_DDOT = 0

CCSDS_OMM_VERS = 2.0
CREATION_DATE  = 
ORIGINATOR     = 

OBJECT_NAME    = STARLINK-35639
OBJECT_ID      = 2025-257C
CENTER_NAME    = EARTH
REF_FRAME      = TEME
TIME_SYSTEM    = UTC
MEAN_ELEMENT_THEORY = SGP/SGP4

EPOCH          = 2025-11-23T04:00:03.000096
MEAN_MOTION    = 15.74199808
ECCENTRICITY   = .000144
INCLINATION    = 53.1618
RA_OF_ASC_NODE = 358.0367
ARG_OF_PERICENTER = 93.2475
MEAN_ANOMALY   = 23.5381

EPHEMERIS_TYPE = 0
CLASSIFICATION_TYPE = U
NORAD_CAT_ID   = 66382
ELEMENT_SET_NO = 999
REV_AT_EPOCH   = 335
BSTAR          = -.11381E-3
MEAN_MOTION_DOT = -.17271E-3
MEAN_MOTION_DDOT = 0

